NORAD_CAT_ID,OBJECT_NAME,OBJECT_TYPE,EPOCH,MEAN_MOTION,ECCENTRICITY,INCLINATION,RA_OF_ASC_NODE,ARG_OF_PERICENTER,MEAN_ANOMALY,BSTAR,MEAN_MOTION_DOT,MEAN_MOTION_DDOT,TLE_LINE0,TLE_LINE1,TLE_LINE2,SEMIMAJOR_AXIS,PERIOD,APOGEE,PERIGEE,DECAYED
52697.0,STARLINK-4018,PAYLOAD,2023-04-22 11:49:56,15.08849502,0.000126,53.2157,192.6109,94.3374,265.7762,0.00012992,1.781e-05,0.0,0 STARLINK-4018,1 52697U 22053AT  23112.49301840  .00001781  00000-0  12992-3 0  9992,2 52697  53.2157 192.6109 0001260  94.3374 265.7762 15.08849502 51835,6917.851,95.437,540.588,538.845,0.0
52697.0,STARLINK-4018,PAYLOAD,2023-04-23 14:51:31,15.08837133,0.0001378,53.2158,187.556,108.9752,251.139,5.5894e-05,6.02e-06,0.0,0 STARLINK-4018,1 52697U 22053AT  23113.61911029  .00000602  00000-0  55894-4 0  9993,2 52697  53.2158 187.5560 0001378 108.9752 251.1390 15.08837133 52005,6917.889,95.438,540.707,538.801,0.0
52697.0,STARLINK-4018,PAYLOAD,2023-04-24 05:09:58,15.08859232,0.0001186,53.2165,184.8814,81.0154,279.0972,0.00022051,3.225e-05,0.0,0 STARLINK-4018,1 52697U 22053AT  23114.21525502  .00003225  00000-0  22051-3 0  9999,2 52697  53.2165 184.8814 0001186  81.0154 279.0972 15.08859232 52503,6917.822,95.436,540.507,538.866,0.0
52697.0,STARLINK-4018,PAYLOAD,2023-04-24 21:03:50,15.08842228,0.0001129,53.2159,181.9067,81.4699,278.6421,-2.4804e-05,-6.83e-06,0.0,0 STARLINK-4018,1 52697U 22053AT  23114.87766355 -.00000683  00000-0 -24804-4 0  9990,2 52697  53.2159 181.9067 0001129  81.4699 278.6421 15.08842228 52195,6917.874,95.437,540.52,538.958,0.0
52697.0,STARLINK-4018,PAYLOAD,2023-04-25 12:57:43,15.08820607,0.000137,53.216,178.9353,98.2059,261.9089,-0.00021791,-3.752e-05,0.0,0 STARLINK-4018,1 52697U 22053AT  23115.54008164 -.00003752  00000-0 -21791-3 0  9993,2 52697  53.2160 178.9353 0001370  98.2059 261.9089 15.08820607 52704,6917.94,95.439,540.752,538.857,0.0
52697.0,STARLINK-4018,PAYLOAD,2023-04-26 12:48:30,15.08842436,0.0001439,53.2164,174.472,98.6156,261.4999,-7.7065e-05,-1.514e-05,0.0,0 STARLINK-4018,1 52697U 22053AT  23116.53368111 -.00001514  00000-0 -77065-4 0  9994,2 52697  53.2164 174.4720 0001439  98.6156 261.4999 15.08842436 52445,6917.873,95.437,540.733,538.742,0.0
52697.0,STARLINK-4018,PAYLOAD,2023-04-26 20:45:25,15.08828104,0.0001379,53.2166,172.986,94.2778,265.8372,0.00031156,4.672e-05,0.0,0 STARLINK-4018,1 52697U 22053AT  23116.86488405  .00004672  00000-0  31156-3 0  9995,2 52697  53.2166 172.9860 0001379  94.2778 265.8372 15.08828104 52900,6917.917,95.438,540.736,538.828,0.0
52697.0,STARLINK-4018,PAYLOAD,2023-04-27 11:03:53,15.08853107,0.0001282,53.215,170.3099,94.0455,266.0684,0.00050302,7.73e-05,0.0,0 STARLINK-4018,1 52697U 22053AT  23117.46103952  .00007730  00000-0  50302-3 0  9995,2 52697  53.2150 170.3099 0001282  94.0455 266.0684 15.08853107 52991,6917.84,95.437,540.592,538.818,0.0
52697.0,STARLINK-4018,PAYLOAD,2023-04-28 02:57:44,15.08853648,0.0001284,53.2143,167.3369,94.6195,265.4943,0.00025761,3.816e-05,0.0,0 STARLINK-4018,1 52697U 22053AT  23118.12343595  .00003816  00000-0  25761-3 0  9990,2 52697  53.2143 167.3369 0001284  94.6195 265.4943 15.08853648 52685,6917.839,95.437,540.592,538.815,0.0
52697.0,STARLINK-4018,PAYLOAD,2023-04-28 12:30:03,15.08855194,0.0001261,53.2143,165.5521,92.2811,267.8325,0.00018597,2.674e-05,0.0,0 STARLINK-4018,1 52697U 22053AT  23118.52087226  .00002674  00000-0  18597-3 0  9990,2 52697  53.2143 165.5521 0001261  92.2811 267.8325 15.08855194 53150,6917.834,95.437,540.571,538.827,0.0
52697.0,STARLINK-4018,PAYLOAD,2023-04-28 20:26:59,15.08850224,0.0001351,53.2155,164.0642,86.9178,273.1968,6.2545e-05,7.08e-06,0.0,0 STARLINK-4018,1 52697U 22053AT  23118.85207210  .00000708  00000-0  62545-4 0  9992,2 52697  53.2155 164.0642 0001351  86.9178 273.1968 15.08850224 52798,6917.849,95.437,540.649,538.78,0.0
52697.0,STARLINK-4018,PAYLOAD,2023-04-29 09:10:03,15.0884768,0.0001408,53.2154,161.686,87.7506,272.3647,4.8201e-06,-2.11e-06,0.0,0 STARLINK-4018,1 52697U 22053AT  23119.38199051 -.00000211  00000-0  48201-5 0  9998,2 52697  53.2154 161.6860 0001408  87.7506 272.3647 15.08847680 53281,6917.857,95.437,540.696,538.748,0.0
52697.0,STARLINK-4018,PAYLOAD,2023-04-30 02:39:18,15.0884195,0.000138,53.2151,158.4162,79.3226,280.7922,4.0509e-05,3.57e-06,0.0,0 STARLINK-4018,1 52697U 22053AT  23120.11063327  .00000357  00000-0  40509-4 0  9999,2 52697  53.2151 158.4162 0001380  79.3226 280.7922 15.08841950 52981,6917.874,95.437,540.694,538.785,0.0
52697.0,STARLINK-4018,PAYLOAD,2023-04-30 12:11:37,15.08841117,0.000136,53.2156,156.6316,82.0023,278.1123,1.3566e-06,-2.66e-06,0.0,0 STARLINK-4018,1 52697U 22053AT  23120.50807415 -.00000266  00000-0  13566-5 0  9990,2 52697  53.2156 156.6316 0001360  82.0023 278.1123 15.08841117 53453,6917.877,95.437,540.683,538.801,0.0
52697.0,STARLINK-4018,PAYLOAD,2023-05-01 12:02:24,15.08841532,0.0001276,53.2159,152.1702,87.9805,272.1333,6.4516e-05,7.39e-06,0.0,0 STARLINK-4018,1 52697U 22053AT  23121.50167304  .00000739  00000-0  64516-4 0  9991,2 52697  53.2159 152.1702 0001276  87.9805 272.1333 15.08841532 53193,6917.876,95.437,540.623,538.858,0.0
52697.0,STARLINK-4018,PAYLOAD,2023-05-02 11:53:11,15.0884411,0.000126,53.216,147.7094,84.3914,275.7222,0.0001253,1.707e-05,0.0,0 STARLINK-4018,1 52697U 22053AT  23122.49527100  .00001707  00000-0  12530-3 0  9998,2 52697  53.2160 147.7094 0001260  84.3914 275.7222 15.08844110 53757,6917.868,95.437,540.604,538.861,0.0
52697.0,STARLINK-4018,PAYLOAD,2023-05-03 02:11:40,15.08836592,0.0001342,53.2159,145.0313,98.0136,262.1008,6.0638e-05,6.77e-06,0.0,0 STARLINK-4018,1 52697U 22053AT  23123.09143760  .00000677  00000-0  60638-4 0  9999,2 52697  53.2159 145.0313 0001342  98.0136 262.1008 15.08836592 53431,6917.891,95.438,540.684,538.827,0.0
52697.0,STARLINK-4018,PAYLOAD,2023-05-03 11:43:59,15.08838033,0.0001238,53.2159,143.2492,84.8092,275.3041,3.7523e-05,3.09e-06,0.0,0 STARLINK-4018,1 52697U 22053AT  23123.48887804  .00000309  00000-0  37523-4 0  9995,2 52697  53.2159 143.2492 0001238  84.8092 275.3041 15.08838033 53904,6917.886,95.438,540.608,538.895,0.0
52697.0,STARLINK-4018,PAYLOAD,2023-05-04 09:59:22,15.08841541,0.0001214,53.2159,139.0859,83.0601,277.0529,2.9134e-05,1.76e-06,0.0,0 STARLINK-4018,1 52697U 22053AT  23124.41623666  .00000176  00000-0  29134-4 0  9994,2 52697  53.2159 139.0859 0001214  83.0601 277.0529 15.08841541 53633,6917.876,95.437,540.581,538.901,0.0
52697.0,STARLINK-4018,PAYLOAD,2023-05-05 05:04:01,15.0883505,0.0001193,53.2161,135.5176,84.4916,275.6212,3.4137e-05,2.55e-06,0.0,0 STARLINK-4018,1 52697U 22053AT  23125.21112302  .00000255  00000-0  34137-4 0  9990,2 52697  53.2161 135.5176 0001193  84.4916 275.6212 15.08835050 53753,6917.896,95.438,540.586,538.935,0.0
52697.0,STARLINK-4018,PAYLOAD,2023-05-05 17:47:05,15.08839138,0.0001222,53.2159,133.1386,85.4716,274.6416,6.7925e-05,7.93e-06,0.0,0 STARLINK-4018,1 52697U 22053AT  23125.74104038  .00000793  00000-0  67925-4 0  9993,2 52697  53.2159 133.1386 0001222  85.4716 274.6416 15.08839138 54240,6917.883,95.438,540.593,538.903,0.0
52697.0,STARLINK-4018,PAYLOAD,2023-05-06 04:54:47,15.08844141,0.0001185,53.2154,131.0562,88.1886,271.9242,8.878e-05,1.126e-05,0.0,0 STARLINK-4018,1 52697U 22053AT  23126.20471744  .00001126  00000-0  88780-4 0  9999,2 52697  53.2154 131.0562 0001185  88.1886 271.9242 15.08844141 53903,6917.868,95.437,540.552,538.913,0.0
52697.0,STARLINK-4018,PAYLOAD,2023-05-06 09:40:56,15.08846783,0.0001288,53.2159,130.1642,86.5065,273.6074,0.0001075,1.424e-05,0.0,0 STARLINK-4018,1 52697U 22053AT  23126.40343527  .00001424  00000-0  10750-3 0  9990,2 52697  53.2159 130.1642 0001288  86.5065 273.6074 15.08846783 54347,6917.86,95.437,540.616,538.834,0.0
52697.0,STARLINK-4018,PAYLOAD,2023-05-07 06:20:57,15.08847985,0.0001318,53.216,126.2987,87.6897,272.4246,0.00013954,1.934e-05,0.0,0 STARLINK-4018,1 52697U 22053AT  23127.26455245  .00001934  00000-0  13954-3 0  9991,2 52697  53.2160 126.2987 0001318  87.6897 272.4246 15.08847985 54068,6917.856,95.437,540.633,538.809,0.0
52697.0,STARLINK-4018,PAYLOAD,2023-05-07 17:28:40,15.08837247,0.0001284,53.2158,124.2168,89.1728,270.9411,2.5495e-05,1.18e-06,0.0,0 STARLINK-4018,1 52697U 22053AT  23127.72824157  .00000118  00000-0  25495-4 0  9991,2 52697  53.2158 124.2168 0001284  89.1728 270.9411 15.08837247 54131,6917.889,95.438,540.642,538.866,0.0
52697.0,STARLINK-4018,PAYLOAD,2023-05-08 10:57:54,15.08835692,0.0001293,53.2166,120.9457,91.0401,269.0739,-5.9531e-05,-1.235e-05,0.0,0 STARLINK-4018,1 52697U 22053AT  23128.45688541 -.00001235  00000-0 -59531-4 0  9998,2 52697  53.2166 120.9457 0001293  91.0401 269.0739 15.08835692 54655,6917.894,95.438,540.653,538.864,0.0
52697.0,STARLINK-4018,PAYLOAD,2023-05-09 10:48:40,15.08847413,0.0001188,53.2171,116.4866,88.7707,271.3421,6.2208e-05,7.03e-06,0.0,0 STARLINK-4018,1 52697U 22053AT  23129.45047353  .00000703  00000-0  62208-4 0  9991,2 52697  53.2171 116.4866 0001188  88.7707 271.3421 15.08847413 54805,6917.858,95.437,540.545,538.901,0.0
52697.0,STARLINK-4018,PAYLOAD,2023-05-10 05:53:19,15.08836935,0.0001141,53.2168,112.9172,89.0371,271.0752,0.00010298,1.351e-05,0.0,0 STARLINK-4018,1 52697U 22053AT  23130.24536341  .00001351  00000-0  10298-3 0  9991,2 52697  53.2168 112.9172 0001141  89.0371 271.0752 15.08836935 54926,6917.89,95.438,540.544,538.965,0.0
52697.0,STARLINK-4018,PAYLOAD,2023-05-11 05:44:06,15.08843341,0.0001115,53.2168,108.4575,89.9177,270.1943,1.5817e-05,-3.6e-07,0.0,0 STARLINK-4018,1 52697U 22053AT  23131.23896426 -.00000036  00000-0  15817-4 0  9997,2 52697  53.2168 108.4575 0001115  89.9177 270.1943 15.08843341 55075,6917.87,95.437,540.507,538.964,0.0
52697.0,STARLINK-4018,PAYLOAD,2023-05-12 03:59:31,15.08835683,0.0001172,53.2179,104.2966,101.4598,258.6526,2.0527e-05,3.9e-07,0.0,0 STARLINK-4018,1 52697U 22053AT  23132.16633163  .00000039  00000-0  20527-4 0  9993,2 52697  53.2179 104.2966 0001172 101.4598 258.6526 15.08835683 55219,6917.894,95.438,540.569,538.948,0.0
